[{"OBJECT_NAME":"STARLINK-31663","OBJECT_ID":"2024-076N","EPOCH":"2026-03-09T04:38:08.750976","MEAN_MOTION":15.27564134,"ECCENTRICITY":0.0001489,"INCLINATION":43.0028,"RA_OF_ASC_NODE":12.0711,"ARG_OF_PERICENTER":274.3528,"MEAN_ANOMALY":85.7154,"EPHEMERIS_TYPE":0,"CLASSIFICATION_TYPE":"U","NORAD_CAT_ID":59576,"ELEMENT_SET_NO":999,"REV_AT_EPOCH":10642,"BSTAR":-6.0810028e-5,"MEAN_MOTION_DOT":-1.934e-5,"MEAN_MOTION_DDOT":0},{"OBJECT_NAME":"FLOCK 4G-7","OBJECT_ID":"2025-009R","EPOCH":"2026-03-09T19:11:56.638176","MEAN_MOTION":15.27141471,"ECCENTRICITY":0.00013963,"INCLINATION":97.3984,"RA_OF_ASC_NODE":150.827,"ARG_OF_PERICENTER":336.9783,"MEAN_ANOMALY":23.1393,"EPHEMERIS_TYPE":0,"CLASSIFICATION_TYPE":"U","NORAD_CAT_ID":62624,"ELEMENT_SET_NO":999,"REV_AT_EPOCH":6372,"BSTAR":0.0004316781,"MEAN_MOTION_DOT":0.00011422,"MEAN_MOTION_DDOT":0}]
